OBJECT_NAME,OBJECT_ID,EPOCH,MEAN_MOTION,ECCENTRICITY,INCLINATION,RA_OF_ASC_NODE,ARG_OF_PERICENTER,MEAN_ANOMALY,EPHEMERIS_TYPE,CLASSIFICATION_TYPE,NORAD_CAT_ID,ELEMENT_SET_NO,REV_AT_EPOCH,BSTAR,MEAN_MOTION_DOT,MEAN_MOTION_DDOT
SIRION PATHFINDER-2,2018-099B,2026-06-25T02:38:05.997696,15.14612741,.0007038,97.4252,224.9788,271.1820,88.8606,0,U,43759,999,41382,.28033E-3,.5115E-4,0
CORVUS BC4,2018-099K,2026-06-25T01:27:47.528064,15.12550622,.0007414,97.4067,218.8103,345.1206,14.9806,0,U,43767,999,41359,.28022E-3,.4825E-4,0
M2 PATHFINDER,2020-037E,2026-06-24T02:18:09.070848,15.04695866,.00125959,97.8139,6.4049,126.1910,234.0482,0,U,45727,999,32653,.1282523E-3,.1743E-4,0
NETSAT-4,2020-068U,2026-06-24T23:12:09.512928,15.44098756,.0003192,97.8605,184.8333,296.5984,63.4935,0,U,46504,999,31697,.42916E-3,.19556E-3,0
NETSAT-3,2020-068V,2026-06-24T23:29:45.321792,15.42921449,.000321,97.8656,183.0532,325.8929,34.2111,0,U,46505,999,31688,.45256E-3,.19826E-3,0
NETSAT-1,2020-068W,2026-06-24T23:01:36.397920,15.34802554,.0004088,97.8744,177.2712,7.3479,352.7822,0,U,46506,999,31649,.39155E-3,.13134E-3,0
NETSAT-2,2020-068X,2026-06-24T23:54:07.869024,15.46304721,.0002263,97.8619,184.7880,358.7452,1.3790,0,U,46507,999,31694,.50419E-3,.24801E-3,0
GREENCUBE (IO-117),2022-080E,2026-06-23T17:18:16.788960,6.42583215,.00089266,70.1445,295.9726,288.1418,71.8270,0,U,53109,999,9248,0,-.3E-7,0
SITRO-AIS 5 (KATYS),2023-091L,2026-06-25T04:22:26.330016,15.29623738,.0012541,97.5062,240.1578,78.7378,281.5270,0,U,57176,999,16556,.53223E-3,.15251E-3,0
SITRO-AIS 6 (CHIRKIN),2023-091AC,2026-06-25T04:18:46.574208,15.26073557,.0012938,97.5070,239.2318,81.8224,278.4481,0,U,57192,999,16550,.49347E-3,.12682E-3,0
SITRO-AIS 8 (ANOKHIN),2023-091AD,2026-06-25T04:26:43.504800,15.32331964,.0011495,97.5059,241.7822,75.1412,285.1102,0,U,57193,999,16567,.5281E-3,.16456E-3,0
SITRO-AIS 7 (FARTUSHNIY),2023-091AE,2026-06-25T04:25:40.405152,15.25758337,.0012814,97.5067,239.0575,82.6993,277.5701,0,U,57194,999,16549,.50258E-3,.12795E-3,0
SITRO-AIS 10 (BURDAEV),2023-091AK,2026-06-25T04:23:26.009088,15.38889998,.0006899,97.5083,246.9172,55.6453,304.5443,0,U,57199,999,16599,.64149E-3,.24665E-3,0
SITRO-AIS 9 (SHCHUKIN),2023-091AM,2026-06-25T03:31:29.293248,15.38388238,.0007161,97.5082,246.6038,56.0780,304.1145,0,U,57201,999,16597,.6271E-3,.23717E-3,0
SITRO-AIS 12 (SMIRENNIY),2023-091AQ,2026-06-25T03:15:47.873664,15.38682104,.0006656,97.5094,247.0648,50.9906,309.1931,0,U,57204,999,16599,.61756E-3,.23576E-3,0
SITRO-AIS 11 (SHEFFER),2023-091AU,2026-06-25T03:31:56.357184,15.39110802,.0006548,97.5092,247.3281,50.6344,309.5480,0,U,57208,999,16601,.64074E-3,.24813E-3,0
SITRO-AIS 25,2024-039R,2026-06-25T05:09:32.224320,14.93549310,.0142657,95.3910,240.6092,300.3902,58.3286,0,U,59066,999,12592,.1815E-3,.23E-4,0
SITRO-AIS 26,2024-039S,2026-06-25T05:13:05.653920,14.93343543,.0143026,95.3910,240.5068,300.9809,57.7430,0,U,59067,999,12591,.16521E-3,.208E-4,0
SITRO-AIS 27,2024-039T,2026-06-25T04:27:00.612000,14.93763127,.0142026,95.3910,240.7601,299.6401,59.0742,0,U,59068,999,12593,.22926E-3,.2927E-4,0
SITRO-AIS 28,2024-039U,2026-06-25T05:30:43.329888,14.93796429,.0141985,95.3911,240.8384,299.3285,59.3817,0,U,59071,999,12594,.17323E-3,.2204E-4,0
GRBBETA,2024-128C,2026-06-25T04:25:08.800032,15.06681375,.0039614,61.9880,188.2076,136.3498,224.0740,0,U,60237,999,10747,.23181E-3,.3299E-4,0
OOV-CUBE (TUBSAT-30),2024-128F,2026-06-25T04:09:21.393792,15.02799692,.0043642,61.9924,197.7253,135.5486,224.9121,0,U,60240,999,10731,.13303E-3,.1609E-4,0
ROBUSTA-3A (MEDITERRANEE),2024-128J,2026-06-24T03:30:41.945184,15.11729530,.00404027,61.9847,183.6324,129.5028,230.9651,0,U,60243,999,10747,.22904275E-3,.3769E-4,0
LASARSAT,2024-247Q,2026-06-25T04:17:59.561376,15.46799498,.0007234,44.9731,217.2905,19.5501,340.5665,0,U,62391,999,8455,.7092E-3,.36208E-3,0
CROCUBE,2024-247T,2026-06-23T04:01:13.553472,15.48608154,.00073733,44.9701,225.8355,11.2148,348.8906,0,U,62394,999,8427,.5204396E-3,.28182E-3,0
FORESAIL-1 PRIME,2025-276DS,2026-06-25T03:59:44.373984,15.18766994,.0003927,97.4202,249.2913,87.1697,272.9986,0,U,66778,999,3161,.25842E-3,.5305E-4,0
KNACKSAT-2,1998-067XZ,2026-06-23T15:03:25.533504,15.60494137,.00087625,51.6285,262.0701,244.0918,115.9173,0,U,67683,999,2128,.46308779E-3,.38628E-3,0
